IRIDIUM 124             
1 42810U 17039H   26061.83778200  .00000478  00000+0  13628-3 0  9996
2 42810  86.4540 334.8372 0002119  83.8494 276.2948 14.43267551459771
IRIDIUM 128             
1 42811U 17039J   26061.95169737  .00000032  00000+0  45048-5 0  9998
2 42811  86.3906  69.5653 0002044  95.1958 264.9471 14.34217623454752
IRIDIUM 121             
1 42812U 17039K   26061.91021926  .00000008  00000+0 -40671-5 0  9993
2 42812  86.3959  38.0721 0002098  90.1960 269.9477 14.34217460454597
IRIDIUM 133             
1 42955U 17061A   26061.56479941 -.00000013  00000+0 -11857-4 0  9991
2 42955  86.3911  69.8428 0002033  90.7476 269.3953 14.34217238439494
IRIDIUM 100             
1 42956U 17061B   26061.55845626 -.00000003  00000+0 -82275-5 0  9990
2 42956  86.3908  69.7665 0002068  90.5317 269.6116 14.34217355439497
IRIDIUM 122             
1 42957U 17061C   26061.94535239  .00000086  00000+0  23488-4 0  9999
2 42957  86.3907  69.6043 0002142  88.0835 272.0606 14.34217830439553
IRIDIUM 129             
1 42958U 17061D   26061.97072575  .00000077  00000+0  20270-4 0  9998
2 42958  86.3908  69.6596 0002546  87.3860 272.7627 14.34218094439571
IRIDIUM 119             
1 42959U 17061E   26061.93901233  .00000030  00000+0  35947-5 0  9994
2 42959  86.3910  69.6683 0002159  85.7834 274.3609 14.34217739439589
IRIDIUM 107             
1 42960U 17061F   26061.95803931  .00000019  00000+0 -17683-6 0  9990
2 42960  86.3909  69.6810 0001809  85.3527 274.7876 14.34217638439596
IRIDIUM 132             
1 42961U 17061G   26061.96438175  .00000091  00000+0  25377-4 0  9992
2 42961  86.3909  69.6585 0002106  90.0907 270.0530 14.34217912439593
IRIDIUM 136             
1 42962U 17061H   26061.99609546  .00000035  00000+0  55399-5 0  9994
2 42962  86.3907  69.6512 0002184  87.4125 272.7321 14.34217911439619
IRIDIUM 139             
1 42963U 17061J   26061.93266994  .00000029  00000+0  31208-5 0  9991
2 42963  86.3910  69.7381 0002102  90.6162 269.5275 14.34217717439612
IRIDIUM 125             
1 42964U 17061K   26061.91998372  .00000069  00000+0  17514-4 0  9999
2 42964  86.3912  69.8027 0002061  74.7972 285.3452 14.34218007439626
IRIDIUM 135             
1 43070U 17083A   26061.89411578  .00000344  00000+0  11578-3 0  9996
2 43070  86.4016   6.4307 0002176  85.9729 274.1716 14.34217286428917
IRIDIUM 138             
1 43071U 17083B   26061.91948140  .00000035  00000+0  52877-5 0  9996
2 43071  86.4029   6.0994 0002405  77.7321 282.4144 14.34217846428900
IRIDIUM 116             
1 43072U 17083C   26061.88776812  .00000029  00000+0  32298-5 0  9996
2 43072  86.4012   6.4203 0002041  93.7742 266.3687 14.34217743428933
IRIDIUM 130             
1 43073U 17083D   26061.92582265  .00000169  00000+0  53117-4 0  9996
2 43073  86.4021   6.6695 0001895  87.7990 272.3423 14.34218322428888
