[{"OBJECT_NAME":"IRIDIUM 124","OBJECT_ID":"2017-039H","EPOCH":"2026-03-02T20:06:24.364800","MEAN_MOTION":14.43267551,"ECCENTRICITY":0.00021193,"INCLINATION":86.454,"RA_OF_ASC_NODE":334.8372,"ARG_OF_PERICENTER":83.8494,"MEAN_ANOMALY":276.2948,"EPHEMERIS_TYPE":0,"CLASSIFICATION_TYPE":"U","NORAD_CAT_ID":42810,"ELEMENT_SET_NO":999,"REV_AT_EPOCH":45977,"BSTAR":0.00013628495,"MEAN_MOTION_DOT":4.78e-6,"MEAN_MOTION_DDOT":0},{"OBJECT_NAME":"IRIDIUM 128","OBJECT_ID":"2017-039J","EPOCH":"2026-03-02T22:50:26.652768","MEAN_MOTION":14.34217623,"ECCENTRICITY":0.00020447,"INCLINATION":86.3906,"RA_OF_ASC_NODE":69.5653,"ARG_OF_PERICENTER":95.1958,"MEAN_ANOMALY":264.9471,"EPHEMERIS_TYPE":0,"CLASSIFICATION_TYPE":"U","NORAD_CAT_ID":42811,"ELEMENT_SET_NO":999,"REV_AT_EPOCH":45475,"BSTAR":4.504813e-6,"MEAN_MOTION_DOT":3.2e-7,"MEAN_MOTION_DDOT":0},{"OBJECT_NAME":"IRIDIUM 121","OBJECT_ID":"2017-039K","EPOCH":"2026-03-02T21:50:42.944064","MEAN_MOTION":14.3421746,"ECCENTRICITY":0.00020982,"INCLINATION":86.3959,"RA_OF_ASC_NODE":38.0721,"ARG_OF_PERICENTER":90.196,"MEAN_ANOMALY":269.9477,"EPHEMERIS_TYPE":0,"CLASSIFICATION_TYPE":"U","NORAD_CAT_ID":42812,"ELEMENT_SET_NO":999,"REV_AT_EPOCH":45459,"BSTAR":-4.067081e-6,"MEAN_MOTION_DOT":8.0e-8,"MEAN_MOTION_DDOT":0},{"OBJECT_NAME":"IRIDIUM 133","OBJECT_ID":"2017-061A","EPOCH":"2026-03-02T13:33:18.669024","MEAN_MOTION":14.34217238,"ECCENTRICITY":0.0002033,"INCLINATION":86.3911,"RA_OF_ASC_NODE":69.8428,"ARG_OF_PERICENTER":90.7476,"MEAN_ANOMALY":269.3953,"EPHEMERIS_TYPE":0,"CLASSIFICATION_TYPE":"U","NORAD_CAT_ID":42955,"ELEMENT_SET_NO":999,"REV_AT_EPOCH":43949,"BSTAR":-1.1857e-5,"MEAN_MOTION_DOT":-1.3e-7,"MEAN_MOTION_DDOT":0},{"OBJECT_NAME":"IRIDIUM 100","OBJECT_ID":"2017-061B","EPOCH":"2026-03-02T13:24:10.620864","MEAN_MOTION":14.34217355,"ECCENTRICITY":0.0002068,"INCLINATION":86.3908,"RA_OF_ASC_NODE":69.7665,"ARG_OF_PERICENTER":90.5317,"MEAN_ANOMALY":269.6116,"EPHEMERIS_TYPE":0,"CLASSIFICATION_TYPE":"U","NORAD_CAT_ID":42956,"ELEMENT_SET_NO":999,"REV_AT_EPOCH":43949,"BSTAR":-8.2275e-6,"MEAN_MOTION_DOT":-3.0e-8,"MEAN_MOTION_DDOT":0},{"OBJECT_NAME":"IRIDIUM 122","OBJECT_ID":"2017-061C","EPOCH":"2026-03-02T22:41:18.446496","MEAN_MOTION":14.3421783,"ECCENTRICITY":0.00021423,"INCLINATION":86.3907,"RA_OF_ASC_NODE":69.6043,"ARG_OF_PERICENTER":88.0835,"MEAN_ANOMALY":272.0606,"EPHEMERIS_TYPE":0,"CLASSIFICATION_TYPE":"U","NORAD_CAT_ID":42957,"ELEMENT_SET_NO":999,"REV_AT_EPOCH":43955,"BSTAR":2.3488327e-5,"MEAN_MOTION_DOT":8.6e-7,"MEAN_MOTION_DDOT":0},{"OBJECT_NAME":"IRIDIUM 129","OBJECT_ID":"2017-061D","EPOCH":"2026-03-02T23:17:50.704800","MEAN_MOTION":14.34218094,"ECCENTRICITY":0.00025463,"INCLINATION":86.3908,"RA_OF_ASC_NODE":69.6596,"ARG_OF_PERICENTER":87.386,"MEAN_ANOMALY":272.7627,"EPHEMERIS_TYPE":0,"CLASSIFICATION_TYPE":"U","NORAD_CAT_ID":42958,"ELEMENT_SET_NO":999,"REV_AT_EPOCH":43957,"BSTAR":2.0269845e-5,"MEAN_MOTION_DOT":7.7e-7,"MEAN_MOTION_DDOT":0},{"OBJECT_NAME":"IRIDIUM 119","OBJECT_ID":"2017-061E","EPOCH":"2026-03-02T22:32:10.665312","MEAN_MOTION":14.34217739,"ECCENTRICITY":0.00021591,"INCLINATION":86.391,"RA_OF_ASC_NODE":69.6683,"ARG_OF_PERICENTER":85.7834,"MEAN_ANOMALY":274.3609,"EPHEMERIS_TYPE":0,"CLASSIFICATION_TYPE":"U","NORAD_CAT_ID":42959,"ELEMENT_SET_NO":999,"REV_AT_EPOCH":43958,"BSTAR":3.594681e-6,"MEAN_MOTION_DOT":3.0e-7,"MEAN_MOTION_DDOT":0},{"OBJECT_NAME":"IRIDIUM 107","OBJECT_ID":"2017-061F","EPOCH":"2026-03-02T22:59:34.596384","MEAN_MOTION":14.34217638,"ECCENTRICITY":0.00018093,"INCLINATION":86.3909,"RA_OF_ASC_NODE":69.681,"ARG_OF_PERICENTER":85.3527,"MEAN_ANOMALY":274.7876,"EPHEMERIS_TYPE":0,"CLASSIFICATION_TYPE":"U","NORAD_CAT_ID":42960,"ELEMENT_SET_NO":999,"REV_AT_EPOCH":43959,"BSTAR":-1.76832e-7,"MEAN_MOTION_DOT":1.9e-7,"MEAN_MOTION_DDOT":0},{"OBJECT_NAME":"IRIDIUM 132","OBJECT_ID":"2017-061G","EPOCH":"2026-03-02T23:08:42.583200","MEAN_MOTION":14.34217912,"ECCENTRICITY":0.00021061,"INCLINATION":86.3909,"RA_OF_ASC_NODE":69.6585,"ARG_OF_PERICENTER":90.0907,"MEAN_ANOMALY":270.053,"EPHEMERIS_TYPE":0,"CLASSIFICATION_TYPE":"U","NORAD_CAT_ID":42961,"ELEMENT_SET_NO":999,"REV_AT_EPOCH":43959,"BSTAR":2.5377018e-5,"MEAN_MOTION_DOT":9.1e-7,"MEAN_MOTION_DDOT":0},{"OBJECT_NAME":"IRIDIUM 136","OBJECT_ID":"2017-061H","EPOCH":"2026-03-02T23:54:22.647744","MEAN_MOTION":14.34217911,"ECCENTRICITY":0.00021849,"INCLINATION":86.3907,"RA_OF_ASC_NODE":69.6512,"ARG_OF_PERICENTER":87.4125,"MEAN_ANOMALY":272.7321,"EPHEMERIS_TYPE":0,"CLASSIFICATION_TYPE":"U","NORAD_CAT_ID":42962,"ELEMENT_SET_NO":999,"REV_AT_EPOCH":43961,"BSTAR":5.539912e-6,"MEAN_MOTION_DOT":3.5e-7,"MEAN_MOTION_DDOT":0},{"OBJECT_NAME":"IRIDIUM 139","OBJECT_ID":"2017-061J","EPOCH":"2026-03-02T22:23:02.682816","MEAN_MOTION":14.34217717,"ECCENTRICITY":0.00021021,"INCLINATION":86.391,"RA_OF_ASC_NODE":69.7381,"ARG_OF_PERICENTER":90.6162,"MEAN_ANOMALY":269.5275,"EPHEMERIS_TYPE":0,"CLASSIFICATION_TYPE":"U","NORAD_CAT_ID":42963,"ELEMENT_SET_NO":999,"REV_AT_EPOCH":43961,"BSTAR":3.120801e-6,"MEAN_MOTION_DOT":2.9e-7,"MEAN_MOTION_DDOT":0},{"OBJECT_NAME":"IRIDIUM 125","OBJECT_ID":"2017-061K","EPOCH":"2026-03-02T22:04:46.593408","MEAN_MOTION":14.34218007,"ECCENTRICITY":0.00020619,"INCLINATION":86.3912,"RA_OF_ASC_NODE":69.8027,"ARG_OF_PERICENTER":74.7972,"MEAN_ANOMALY":285.3452,"EPHEMERIS_TYPE":0,"CLASSIFICATION_TYPE":"U","NORAD_CAT_ID":42964,"ELEMENT_SET_NO":999,"REV_AT_EPOCH":43962,"BSTAR":1.751401e-5,"MEAN_MOTION_DOT":6.9e-7,"MEAN_MOTION_DDOT":0},{"OBJECT_NAME":"IRIDIUM 135","OBJECT_ID":"2017-083A","EPOCH":"2026-03-02T21:27:31.603392","MEAN_MOTION":14.34217286,"ECCENTRICITY":0.00021769,"INCLINATION":86.4016,"RA_OF_ASC_NODE":6.4307,"ARG_OF_PERICENTER":85.9729,"MEAN_ANOMALY":274.1716,"EPHEMERIS_TYPE":0,"CLASSIFICATION_TYPE":"U","NORAD_CAT_ID":43070,"ELEMENT_SET_NO":999,"REV_AT_EPOCH":42891,"BSTAR":0.00011578476,"MEAN_MOTION_DOT":3.44e-6,"MEAN_MOTION_DDOT":0},{"OBJECT_NAME":"IRIDIUM 138","OBJECT_ID":"2017-083B","EPOCH":"2026-03-02T22:04:03.192960","MEAN_MOTION":14.34217846,"ECCENTRICITY":0.00024055,"INCLINATION":86.4029,"RA_OF_ASC_NODE":6.0994,"ARG_OF_PERICENTER":77.7321,"MEAN_ANOMALY":282.4144,"EPHEMERIS_TYPE":0,"CLASSIFICATION_TYPE":"U","NORAD_CAT_ID":43071,"ELEMENT_SET_NO":999,"REV_AT_EPOCH":42890,"BSTAR":5.287731e-6,"MEAN_MOTION_DOT":3.5e-7,"MEAN_MOTION_DDOT":0},{"OBJECT_NAME":"IRIDIUM 116","OBJECT_ID":"2017-083C","EPOCH":"2026-03-02T21:18:23.165568","MEAN_MOTION":14.34217743,"ECCENTRICITY":0.0002041,"INCLINATION":86.4012,"RA_OF_ASC_NODE":6.4203,"ARG_OF_PERICENTER":93.7742,"MEAN_ANOMALY":266.3687,"EPHEMERIS_TYPE":0,"CLASSIFICATION_TYPE":"U","NORAD_CAT_ID":43072,"ELEMENT_SET_NO":999,"REV_AT_EPOCH":42893,"BSTAR":3.229829e-6,"MEAN_MOTION_DOT":2.9e-7,"MEAN_MOTION_DDOT":0},{"OBJECT_NAME":"IRIDIUM 130","OBJECT_ID":"2017-083D","EPOCH":"2026-03-02T22:13:11.076960","MEAN_MOTION":14.34218322,"ECCENTRICITY":0.00018959,"INCLINATION":86.4021,"RA_OF_ASC_NODE":6.6695,"ARG_OF_PERICENTER":87.799,"MEAN_ANOMALY":272.3423,"EPHEMERIS_TYPE":0,"CLASSIFICATION_TYPE":"U","NORAD_CAT_ID":43073,"ELEMENT_SET_NO":999,"REV_AT_EPOCH":42888,"BSTAR":5.3117161e-5,"MEAN_MOTION_DOT":1.69e-6,"MEAN_MOTION_DDOT":0}]
